[{"OBJECT_NAME":"STARLINK-36428","OBJECT_ID":"2026-003AE","EPOCH":"2026-03-09T11:36:42.569856","MEAN_MOTION":15.27610726,"ECCENTRICITY":0.00012272,"INCLINATION":43.0027,"RA_OF_ASC_NODE":228.1124,"ARG_OF_PERICENTER":240.5697,"MEAN_ANOMALY":119.5033,"EPHEMERIS_TYPE":0,"CLASSIFICATION_TYPE":"U","NORAD_CAT_ID":67362,"ELEMENT_SET_NO":999,"REV_AT_EPOCH":879,"BSTAR":0.001354714,"MEAN_MOTION_DOT":0.0003724,"MEAN_MOTION_DDOT":0},{"OBJECT_NAME":"CZ-4B R\/B","OBJECT_ID":"2019-059D","EPOCH":"2026-03-09T22:53:45.354624","MEAN_MOTION":15.13308828,"ECCENTRICITY":0.01361486,"INCLINATION":98.7209,"RA_OF_ASC_NODE":86.9492,"ARG_OF_PERICENTER":209.5346,"MEAN_ANOMALY":149.8142,"EPHEMERIS_TYPE":0,"CLASSIFICATION_TYPE":"U","NORAD_CAT_ID":44531,"ELEMENT_SET_NO":999,"REV_AT_EPOCH":35472,"BSTAR":0.00025424701,"MEAN_MOTION_DOT":5.595e-5,"MEAN_MOTION_DDOT":0}]
